AL MUNTHER              
1 63240U 25052AG  26068.64540749  .00017933  00000+0  65015-3 0  9992
2 63240  97.4001 323.9152 0008027 130.7043 229.4895 15.28381521 54798
STARLINK-34123          
1 63891U 25095B   26068.62360240  .00030308  00000+0  11051-2 0  9996
2 63891  43.0055 176.9552 0002676 309.0664  50.9949 15.27615729 47776
