[{"OBJECT_NAME":"AL MUNTHER","OBJECT_ID":"2025-052AG","EPOCH":"2026-03-09T15:29:23.207136","MEAN_MOTION":15.28381521,"ECCENTRICITY":0.0008027,"INCLINATION":97.4001,"RA_OF_ASC_NODE":323.9152,"ARG_OF_PERICENTER":130.7043,"MEAN_ANOMALY":229.4895,"EPHEMERIS_TYPE":0,"CLASSIFICATION_TYPE":"U","NORAD_CAT_ID":63240,"ELEMENT_SET_NO":999,"REV_AT_EPOCH":5479,"BSTAR":0.00065015,"MEAN_MOTION_DOT":0.00017933,"MEAN_MOTION_DDOT":0},{"OBJECT_NAME":"STARLINK-34123","OBJECT_ID":"2025-095B","EPOCH":"2026-03-09T14:57:59.247360","MEAN_MOTION":15.27615729,"ECCENTRICITY":0.0002676,"INCLINATION":43.0055,"RA_OF_ASC_NODE":176.9552,"ARG_OF_PERICENTER":309.0664,"MEAN_ANOMALY":50.9949,"EPHEMERIS_TYPE":0,"CLASSIFICATION_TYPE":"U","NORAD_CAT_ID":63891,"ELEMENT_SET_NO":999,"REV_AT_EPOCH":4777,"BSTAR":0.0011051,"MEAN_MOTION_DOT":0.00030308,"MEAN_MOTION_DDOT":0}]
